{
  "updated": "2026-07-19T18:58:07.666Z",
  "capsules": {
    "66664": {
      "name": "SOYUZ-MS 28",
      "kind": "crew",
      "family": "soyuz",
      "phase": "docked",
      "stationKey": "iss",
      "since": "2026-07-03T10:34:14.509Z",
      "distanceKm": 0,
      "altitudeKm": 427.2,
      "inclinationDeg": 51.632,
      "l1": "1 66664U 25275A   26200.25015283  .00004118  00000+0  82726-4 0  9997",
      "l2": "2 66664  51.6315 141.4207 0006817 313.5383  46.5039 15.49048208576116"
    },
    "67796": {
      "name": "CREW DRAGON 12",
      "kind": "crew",
      "family": "dragon",
      "phase": "docked",
      "stationKey": "iss",
      "since": "2026-07-03T10:34:14.509Z",
      "distanceKm": 0.1,
      "altitudeKm": 427.2,
      "inclinationDeg": 51.632,
      "l1": "1 67796U 26031A   26200.25015275  .00004092  00000+0  82259-4 0  9998",
      "l2": "2 67796  51.6316 141.4208 0006801 313.5238  46.5185 15.49048243576073"
    },
    "68319": {
      "name": "PROGRESS-MS 33",
      "kind": "cargo",
      "family": "progress",
      "phase": "docked",
      "stationKey": "iss",
      "since": "2026-07-10T20:18:26.588Z",
      "distanceKm": 0,
      "altitudeKm": 427.2,
      "inclinationDeg": 51.632,
      "l1": "1 68319U 26058A   26200.25015283  .00004118  00000+0  82726-4 0  9996",
      "l2": "2 68319  51.6315 141.4207 0006817 313.5383  46.5039 15.49048208576159"
    },
    "68689": {
      "name": "CYGNUS NG-24",
      "kind": "cargo",
      "family": "cygnus",
      "phase": "docked",
      "stationKey": "iss",
      "since": "2026-07-10T20:18:26.588Z",
      "distanceKm": 0.1,
      "altitudeKm": 427.2,
      "inclinationDeg": 51.632,
      "l1": "1 68689U 26079A   26200.25015275  .00004092  00000+0  82259-4 0  9992",
      "l2": "2 68689  51.6316 141.4208 0006801 313.5238  46.5185 15.49048243576198"
    },
    "68837": {
      "name": "PROGRESS-MS 34",
      "kind": "cargo",
      "family": "progress",
      "phase": "docked",
      "stationKey": "iss",
      "since": "2026-07-10T20:18:26.588Z",
      "distanceKm": 0.1,
      "altitudeKm": 427.2,
      "inclinationDeg": 51.632,
      "l1": "1 68837U 26093A   26200.25015275  .00004092  00000+0  82259-4 0  9993",
      "l2": "2 68837  51.6316 141.4208 0006801 313.5238  46.5185 15.49048243576238"
    },
    "69049": {
      "name": "TIANZHOU-10",
      "kind": "cargo",
      "family": "tianzhou",
      "phase": "docked",
      "stationKey": "css",
      "since": "2026-07-10T20:18:26.588Z",
      "distanceKm": 0,
      "altitudeKm": 402.2,
      "inclinationDeg": 41.468,
      "l1": "1 69049U 26102A   26200.50932682  .00010866  00000+0  14394-3 0  9998",
      "l2": "2 69049  41.4683 125.6834 0001983 305.8498  54.2155 15.58197952297825"
    },
    "69180": {
      "name": "SHENZHOU-23 (SZ-23)",
      "kind": "crew",
      "family": "shenzhou",
      "phase": "docked",
      "stationKey": "css",
      "since": "2026-07-03T10:34:14.509Z",
      "distanceKm": 0,
      "altitudeKm": 402.2,
      "inclinationDeg": 41.468,
      "l1": "1 69180U 26113A   26200.50932682  .00010866  00000+0  14394-3 0  9996",
      "l2": "2 69180  41.4683 125.6834 0001983 305.8498  54.2155 15.58197952297371"
    }
  },
  "events": [
    {
      "id": "68319",
      "name": "PROGRESS-MS 33",
      "kind": "cargo",
      "family": "progress",
      "stationKey": "iss",
      "event": "launched",
      "at": "2026-07-10T20:18:26.588Z"
    },
    {
      "id": "68689",
      "name": "CYGNUS NG-24",
      "kind": "cargo",
      "family": "cygnus",
      "stationKey": "iss",
      "event": "launched",
      "at": "2026-07-10T20:18:26.588Z"
    },
    {
      "id": "68837",
      "name": "PROGRESS-MS 34",
      "kind": "cargo",
      "family": "progress",
      "stationKey": "iss",
      "event": "launched",
      "at": "2026-07-10T20:18:26.588Z"
    },
    {
      "id": "69049",
      "name": "TIANZHOU-10",
      "kind": "cargo",
      "family": "tianzhou",
      "stationKey": "css",
      "event": "launched",
      "at": "2026-07-10T20:18:26.588Z"
    }
  ]
}
